{"type": "FeatureCollection", "features": [ {"type": "Feature", "properties": {"norad_id": 66617, "name": "STARLINK-35940", "group": "last-30-days", "lat": 3.494109883881988, "lon": -156.42267772042985, "alt_km": 381.5794606997679, "timestamp": "2025-12-09T21:34:10.196547+00:00", "meta": {"OBJECT_NAME": "STARLINK-35940", "OBJECT_ID": "2025-271A", "EPOCH": "2025-12-09T14:00:01.999872", "MEAN_MOTION": 15.63698406, "ECCENTRICITY": 8.174e-05, "INCLINATION": 53.1592, "RA_OF_ASC_NODE": 202.4931, "ARG_OF_PERICENTER": 109.5202, "MEAN_ANOMALY": 279.3967, "EPHEMERIS_TYPE": 0, "CLASSIFICATION_TYPE": "U", "NORAD_CAT_ID": 66617, "ELEMENT_SET_NO": 999, "REV_AT_EPOCH": 373, "BSTAR": -0.023671568, "MEAN_MOTION_DOT": -0.01980492, "MEAN_MOTION_DDOT": 0}, "tle": {"line1": "1 66617U 25271A   25343.58335648 -.01980492  00000+0 -23672-1 0  9997", "line2": "2 66617  53.1592 202.4931 0000817 109.5202 279.3967 15.63698406  3733"}}, "geometry": {"type": "Point", "coordinates": [-156.42267772042985, 3.494109883881988]}}, {"type": "Feature", "properties": {"norad_id": 66618, "name": "STARLINK-35970", "group": "last-30-days", "lat": 42.579645997549875, "lon": -115.6133616092387, "alt_km": 374.95328539815455, "timestamp": "2025-12-09T21:34:10.196557+00:00", "meta": {"OBJECT_NAME": "STARLINK-35970", "OBJECT_ID": "2025-271B", "EPOCH": "2025-12-09T14:00:01.999872", "MEAN_MOTION": 15.63699915, "ECCENTRICITY": 9.318e-05, "INCLINATION": 53.1594, "RA_OF_ASC_NODE": 202.3806, "ARG_OF_PERICENTER": 109.0163, "MEAN_ANOMALY": 333.2228, "EPHEMERIS_TYPE": 0, "CLASSIFICATION_TYPE": "U", "NORAD_CAT_ID": 66618, "ELEMENT_SET_NO": 999, "REV_AT_EPOCH": 373, "BSTAR": -0.023702112, "MEAN_MOTION_DOT": -0.01982923, "MEAN_MOTION_DDOT": 0}, "tle": {"line1": "1 66618U 25271B   25343.58335648 -.01982923  00000+0 -23702-1 0  9993", "line2": "2 66618  53.1594 202.3806 0000931 109.0163 333.2228 15.63699915  3730"}}, "geometry": {"type": "Point", "coordinates": [-115.6133616092387, 42.579645997549875]}}, {"type": "Feature", "properties": {"norad_id": 66619, "name": "STARLINK-35951", "group": "last-30-days", "lat": 9.60645210829086, "lon": -151.77351350377754, "alt_km": 380.6150989065927, "timestamp": "2025-12-09T21:34:10.196569+00:00", "meta": {"OBJECT_NAME": "STARLINK-35951", "OBJECT_ID": "2025-271C", "EPOCH": "2025-12-09T14:00:01.999872", "MEAN_MOTION": 15.63703595, "ECCENTRICITY": 8.203e-05, "INCLINATION": 53.1596, "RA_OF_ASC_NODE": 202.4759, "ARG_OF_PERICENTER": 108.5295, "MEAN_ANOMALY": 288.0507, "EPHEMERIS_TYPE": 0, "CLASSIFICATION_TYPE": "U", "NORAD_CAT_ID": 66619, "ELEMENT_SET_NO": 999, "REV_AT_EPOCH": 373, "BSTAR": -0.023724723, "MEAN_MOTION_DOT": -0.01984762, "MEAN_MOTION_DDOT": 0}, "tle": {"line1": "1 66619U 25271C   25343.58335648 -.01984762  00000+0 -23725-1 0  9992", "line2": "2 66619  53.1596 202.4759 0000820 108.5295 288.0507 15.63703595  3735"}}, "geometry": {"type": "Point", "coordinates": [-151.77351350377754, 9.60645210829086]}}, {"type": "Feature", "properties": {"norad_id": 66620, "name": "STARLINK-35936", "group": "last-30-days", "lat": 5.025760696109779, "lon": -155.2702927131744, "alt_km": 381.3591890655498, "timestamp": "2025-12-09T21:34:10.196581+00:00", "meta": {"OBJECT_NAME": "STARLINK-35936", "OBJECT_ID": "2025-271D", "EPOCH": "2025-12-09T14:00:01.999872", "MEAN_MOTION": 15.63701827, "ECCENTRICITY": 7.86e-05, "INCLINATION": 53.1595, "RA_OF_ASC_NODE": 202.4889, "ARG_OF_PERICENTER": 111.4211, "MEAN_ANOMALY": 279.4099, "EPHEMERIS_TYPE": 0, "CLASSIFICATION_TYPE": "U", "NORAD_CAT_ID": 66620, "ELEMENT_SET_NO": 999, "REV_AT_EPOCH": 373, "BSTAR": -0.023716928, "MEAN_MOTION_DOT": -0.01984042, "MEAN_MOTION_DDOT": 0}, "tle": {"line1": "1 66620U 25271D   25343.58335648 -.01984042  00000+0 -23717-1 0  9996", "line2": "2 66620  53.1595 202.4889 0000786 111.4211 279.4099 15.63701827  3738"}}, "geometry": {"type": "Point", "coordinates": [-155.2702927131744, 5.025760696109779]}}, {"type": "Feature", "properties": {"norad_id": 66621, "name": "STARLINK-35847", "group": "last-30-days", "lat": 44.56480448694962, "lon": -111.56794787573956, "alt_km": 374.47029008424306, "timestamp": "2025-12-09T21:34:10.196591+00:00", "meta": {"OBJECT_NAME": "STARLINK-35847", "OBJECT_ID": "2025-271E", "EPOCH": "2025-12-09T14:00:01.999872", "MEAN_MOTION": 15.63705012, "ECCENTRICITY": 0.00010106, "INCLINATION": 53.1591, "RA_OF_ASC_NODE": 202.3724, "ARG_OF_PERICENTER": 92.9535, "MEAN_ANOMALY": 352.8181, "EPHEMERIS_TYPE": 0, "CLASSIFICATION_TYPE": "U", "NORAD_CAT_ID": 66621, "ELEMENT_SET_NO": 999, "REV_AT_EPOCH": 373, "BSTAR": -0.023739966, "MEAN_MOTION_DOT": -0.01986116, "MEAN_MOTION_DDOT": 0}, "tle": {"line1": "1 66621U 25271E   25343.58335648 -.01986116  00000+0 -23740-1 0  9997", "line2": "2 66621  53.1591 202.3724 0001010  92.9535 352.8181 15.63705012  3733"}}, "geometry": {"type": "Point", "coordinates": [-111.56794787573956, 44.56480448694962]}}, {"type": "Feature", "properties": {"norad_id": 66622, "name": "STARLINK-35950", "group": "last-30-days", "lat": 11.126352364367591, "lon": -150.58780509067526, "alt_km": 380.3584121044605, "timestamp": "2025-12-09T21:34:10.196603+00:00", "meta": {"OBJECT_NAME": "STARLINK-35950", "OBJECT_ID": "2025-271F", "EPOCH": "2025-12-09T14:00:01.999872", "MEAN_MOTION": 15.63702149, "ECCENTRICITY": 8.009e-05, "INCLINATION": 53.1592, "RA_OF_ASC_NODE": 202.4725, "ARG_OF_PERICENTER": 107.3098, "MEAN_ANOMALY": 291.1882, "EPHEMERIS_TYPE": 0, "CLASSIFICATION_TYPE": "U", "NORAD_CAT_ID": 66622, "ELEMENT_SET_NO": 999, "REV_AT_EPOCH": 373, "BSTAR": -0.023714224, "MEAN_MOTION_DOT": -0.01983877, "MEAN_MOTION_DDOT": 0}, "tle": {"line1": "1 66622U 25271F   25343.58335648 -.01983877  00000+0 -23714-1 0  9990", "line2": "2 66622  53.1592 202.4725 0000800 107.3098 291.1882 15.63702149  3739"}}, "geometry": {"type": "Point", "coordinates": [-150.58780509067526, 11.126352364367591]}}, {"type": "Feature", "properties": {"norad_id": 66623, "name": "STARLINK-35920", "group": "last-30-days", "lat": 14.150490549827293, "lon": -148.1796868961952, "alt_km": 379.82763742728184, "timestamp": "2025-12-09T21:34:10.196613+00:00", "meta": {"OBJECT_NAME": "STARLINK-35920", "OBJECT_ID": "2025-271G", "EPOCH": "2025-12-09T14:00:01.999872", "MEAN_MOTION": 15.6370031, "ECCENTRICITY": 8.42e-05, "INCLINATION": 53.1592, "RA_OF_ASC_NODE": 202.464, "ARG_OF_PERICENTER": 104.5284, "MEAN_ANOMALY": 297.8021, "EPHEMERIS_TYPE": 0, "CLASSIFICATION_TYPE": "U", "NORAD_CAT_ID": 66623, "ELEMENT_SET_NO": 999, "REV_AT_EPOCH": 373, "BSTAR": -0.023646624, "MEAN_MOTION_DOT": -0.01978807, "MEAN_MOTION_DDOT": 0}, "tle": {"line1": "1 66623U 25271G   25343.58335648 -.01978807  00000+0 -23647-1 0  9993", "line2": "2 66623  53.1592 202.4640 0000842 104.5284 297.8021 15.63700310  3734"}}, "geometry": {"type": "Point", "coordinates": [-148.1796868961952, 14.150490549827293]}}, {"type": "Feature", "properties": {"norad_id": 66624, "name": "STARLINK-35927", "group": "last-30-days", "lat": 12.641571804108306, "lon": -149.3901703891123, "alt_km": 380.0879049591349, "timestamp": "2025-12-09T21:34:10.196623+00:00", "meta": {"OBJECT_NAME": "STARLINK-35927", "OBJECT_ID": "2025-271H", "EPOCH": "2025-12-09T14:00:01.999872", "MEAN_MOTION": 15.63705627, "ECCENTRICITY": 7.941e-05, "INCLINATION": 53.1597, "RA_OF_ASC_NODE": 202.4688, "ARG_OF_PERICENTER": 105.3152, "MEAN_ANOMALY": 295.0967, "EPHEMERIS_TYPE": 0, "CLASSIFICATION_TYPE": "U", "NORAD_CAT_ID": 66624, "ELEMENT_SET_NO": 999, "REV_AT_EPOCH": 373, "BSTAR": -0.023750336, "MEAN_MOTION_DOT": -0.01986767, "MEAN_MOTION_DDOT": 0}, "tle": {"line1": "1 66624U 25271H   25343.58335648 -.01986767  00000+0 -23750-1 0  9993", "line2": "2 66624  53.1597 202.4688 0000794 105.3152 295.0967 15.63705627  3736"}}, "geometry": {"type": "Point", "coordinates": [-149.3901703891123, 12.641571804108306]}}, {"type": "Feature", "properties": {"norad_id": 66625, "name": "STARLINK-35929", "group": "last-30-days", "lat": 15.65220362225692, "lon": -146.95325597627203, "alt_km": 379.6496677077421, "timestamp": "2025-12-09T21:34:10.196635+00:00", "meta": {"OBJECT_NAME": "STARLINK-35929", "OBJECT_ID": "2025-271J", "EPOCH": "2025-12-09T14:00:01.999872", "MEAN_MOTION": 15.63701266, "ECCENTRICITY": 9.689e-05, "INCLINATION": 53.1591, "RA_OF_ASC_NODE": 202.4599, "ARG_OF_PERICENTER": 111.5199, "MEAN_ANOMALY": 292.7252, "EPHEMERIS_TYPE": 0, "CLASSIFICATION_TYPE": "U", "NORAD_CAT_ID": 66625, "ELEMENT_SET_NO": 999, "REV_AT_EPOCH": 373, "BSTAR": -0.023644979, "MEAN_MOTION_DOT": -0.01978842, "MEAN_MOTION_DDOT": 0}, "tle": {"line1": "1 66625U 25271J   25343.58335648 -.01978842  00000+0 -23645-1 0  9992", "line2": "2 66625  53.1591 202.4599 0000968 111.5199 292.7252 15.63701266  3731"}}, "geometry": {"type": "Point", "coordinates": [-146.95325597627203, 15.65220362225692]}}, {"type": "Feature", "properties": {"norad_id": 66626, "name": "STARLINK-35902", "group": "last-30-days", "lat": 17.151756495285905, "lon": -145.70448967955508, "alt_km": 379.3722902123782, "timestamp": "2025-12-09T21:34:10.196647+00:00", "meta": {"OBJECT_NAME": "STARLINK-35902", "OBJECT_ID": "2025-271K", "EPOCH": "2025-12-09T14:00:01.999872", "MEAN_MOTION": 15.63703613, "ECCENTRICITY": 8.406e-05, "INCLINATION": 53.159, "RA_OF_ASC_NODE": 202.4559, "ARG_OF_PERICENTER": 108.9949, "MEAN_ANOMALY": 297.1689, "EPHEMERIS_TYPE": 0, "CLASSIFICATION_TYPE": "U", "NORAD_CAT_ID": 66626, "ELEMENT_SET_NO": 999, "REV_AT_EPOCH": 373, "BSTAR": -0.023725355, "MEAN_MOTION_DOT": -0.01984825, "MEAN_MOTION_DDOT": 0}, "tle": {"line1": "1 66626U 25271K   25343.58335648 -.01984825  00000+0 -23725-1 0  9990", "line2": "2 66626  53.1590 202.4559 0000840 108.9949 297.1689 15.63703613  3730"}}, "geometry": {"type": "Point", "coordinates": [-145.70448967955508, 17.151756495285905]}}]}